GAOFEN-3
1 41727U 16049A   26119.31120949  .00000216  00000+0  78579-4 0  9997
2 41727  98.4031 127.8328 0001104  63.5885 296.5418 14.42227218511601
